ONEWEB-0434             
1 51631U 22012K   26027.15514003  .00000485  00000+0  13537-2 0  9996
2 51631  87.8762  64.4010 0002426  85.9156 274.2249 13.10376030190856
ONEWEB-0435             
1 51632U 22012L   26027.16330353  .00000660  00000+0  18543-2 0  9999
2 51632  87.8754  64.3894 0001419  90.0296 270.0994 13.10373819190842
ONEWEB-0436             
1 51633U 22012M   26027.04686529  .00000037  00000+0  61476-4 0  9999
2 51633  87.9095  33.8820 0001607  91.0329 269.0987 13.17651246195091
ONEWEB-0438             
1 51634U 22012N   26027.14669289  .00000166  00000+0  44019-3 0  9991
2 51634  87.8763  64.3942 0002130  94.7814 265.3557 13.10377666190875
ONEWEB-0439             
1 51635U 22012P   26027.15001805  .00000299  00000+0  82000-3 0  9996
2 51635  87.8764  64.3824 0001803  92.2984 267.8349 13.10376573190853
ONEWEB-0442             
1 51636U 22012Q   26026.96334990  .00000042  00000+0  75214-4 0  9995
2 51636  87.9080  33.9419 0002403  88.6992 271.4415 13.17647434195071
ONEWEB-0443             
1 51637U 22012R   26027.28649800 -.00000026  00000+0 -10011-3 0  9998
2 51637  87.9078  33.8809 0001940  80.9136 279.2215 13.17649693195164
ONEWEB-0444             
1 51638U 22012S   26027.14004413 -.00000194  00000+0 -59228-3 0  9998
2 51638  87.8765  64.3830 0001829  95.2229 264.9107 13.10377448190860
ONEWEB-0445             
1 51639U 22012T   26027.16164809  .00000679  00000+0  19077-2 0  9990
2 51639  87.8769  64.3526 0001822 102.2872 257.8459 13.10376483190873
ONEWEB-0446             
1 51640U 22012U   26027.13838227 -.00000335  00000+0 -99604-3 0  9997
2 51640  87.8765  64.3997 0001912 100.3197 259.8146 13.10376550190850
ONEWEB-0448             
1 51641U 22012V   26027.14336830 -.00000006  00000+0 -52466-4 0  9993
2 51641  87.8754  64.3961 0001753  92.5587 267.5741 13.10376644190826
ONEWEB-0449             
1 51642U 22012W   26027.14835772  .00000277  00000+0  75624-3 0  9991
2 51642  87.8771  64.3719 0002229  85.7402 274.3980 13.10376969190838
ONEWEB-0451             
1 51643U 22012X   26026.96756588  .00000043  00000+0  77301-4 0  9994
2 51643  87.9092  33.8931 0001918  88.2875 271.8476 13.17650885195060
ONEWEB-0452             
1 51644U 22012Y   26027.26963565 -.00000037  00000+0 -12893-3 0  9993
2 51644  87.9083  33.8836 0001906  80.5648 279.5699 13.17649199195119
ONEWEB-0456             
1 51646U 22012AA  26027.15831775  .00000647  00000+0  18172-2 0  9990
2 51646  87.8776  64.3434 0001646  96.0095 264.1220 13.10375553190872
ONEWEB-0457             
1 51647U 22012AB  26027.13506651 -.00000419  00000+0 -12370-2 0  9994
2 51647  87.8762  64.3875 0002257 101.7046 258.4335 13.10374961190871
ONEWEB-0458             
1 51648U 22012AC  26027.08030717  .00000604  00000+0  16924-2 0  9997
2 51648  87.8766  64.3757 0001864  89.5923 270.5418 13.10375515190823
