[{"OBJECT_NAME":"ONEWEB-0434","OBJECT_ID":"2022-012K","EPOCH":"2026-01-27T03:43:24.098592","MEAN_MOTION":13.1037603,"ECCENTRICITY":0.00024268,"INCLINATION":87.8762,"RA_OF_ASC_NODE":64.401,"ARG_OF_PERICENTER":85.9156,"MEAN_ANOMALY":274.2249,"EPHEMERIS_TYPE":0,"CLASSIFICATION_TYPE":"U","NORAD_CAT_ID":51631,"ELEMENT_SET_NO":999,"REV_AT_EPOCH":19085,"BSTAR":0.0013537136,"MEAN_MOTION_DOT":4.85e-6,"MEAN_MOTION_DDOT":0},{"OBJECT_NAME":"ONEWEB-0435","OBJECT_ID":"2022-012L","EPOCH":"2026-01-27T03:55:09.424992","MEAN_MOTION":13.10373819,"ECCENTRICITY":0.00014198,"INCLINATION":87.8754,"RA_OF_ASC_NODE":64.3894,"ARG_OF_PERICENTER":90.0296,"MEAN_ANOMALY":270.0994,"EPHEMERIS_TYPE":0,"CLASSIFICATION_TYPE":"U","NORAD_CAT_ID":51632,"ELEMENT_SET_NO":999,"REV_AT_EPOCH":19084,"BSTAR":0.0018543095,"MEAN_MOTION_DOT":6.6e-6,"MEAN_MOTION_DDOT":0},{"OBJECT_NAME":"ONEWEB-0436","OBJECT_ID":"2022-012M","EPOCH":"2026-01-27T01:07:29.161056","MEAN_MOTION":13.17651246,"ECCENTRICITY":0.00016077,"INCLINATION":87.9095,"RA_OF_ASC_NODE":33.882,"ARG_OF_PERICENTER":91.0329,"MEAN_ANOMALY":269.0987,"EPHEMERIS_TYPE":0,"CLASSIFICATION_TYPE":"U","NORAD_CAT_ID":51633,"ELEMENT_SET_NO":999,"REV_AT_EPOCH":19509,"BSTAR":6.1475975e-5,"MEAN_MOTION_DOT":3.7e-7,"MEAN_MOTION_DDOT":0},{"OBJECT_NAME":"ONEWEB-0438","OBJECT_ID":"2022-012N","EPOCH":"2026-01-27T03:31:14.265696","MEAN_MOTION":13.10377666,"ECCENTRICITY":0.00021305,"INCLINATION":87.8763,"RA_OF_ASC_NODE":64.3942,"ARG_OF_PERICENTER":94.7814,"MEAN_ANOMALY":265.3557,"EPHEMERIS_TYPE":0,"CLASSIFICATION_TYPE":"U","NORAD_CAT_ID":51634,"ELEMENT_SET_NO":999,"REV_AT_EPOCH":19087,"BSTAR":0.00044018654,"MEAN_MOTION_DOT":1.66e-6,"MEAN_MOTION_DDOT":0},{"OBJECT_NAME":"ONEWEB-0439","OBJECT_ID":"2022-012P","EPOCH":"2026-01-27T03:36:01.559520","MEAN_MOTION":13.10376573,"ECCENTRICITY":0.00018036,"INCLINATION":87.8764,"RA_OF_ASC_NODE":64.3824,"ARG_OF_PERICENTER":92.2984,"MEAN_ANOMALY":267.8349,"EPHEMERIS_TYPE":0,"CLASSIFICATION_TYPE":"U","NORAD_CAT_ID":51635,"ELEMENT_SET_NO":999,"REV_AT_EPOCH":19085,"BSTAR":0.00082000321,"MEAN_MOTION_DOT":2.99e-6,"MEAN_MOTION_DDOT":0},{"OBJECT_NAME":"ONEWEB-0442","OBJECT_ID":"2022-012Q","EPOCH":"2026-01-26T23:07:13.431360","MEAN_MOTION":13.17647434,"ECCENTRICITY":0.00024034,"INCLINATION":87.908,"RA_OF_ASC_NODE":33.9419,"ARG_OF_PERICENTER":88.6992,"MEAN_ANOMALY":271.4415,"EPHEMERIS_TYPE":0,"CLASSIFICATION_TYPE":"U","NORAD_CAT_ID":51636,"ELEMENT_SET_NO":999,"REV_AT_EPOCH":19507,"BSTAR":7.5214472e-5,"MEAN_MOTION_DOT":4.2e-7,"MEAN_MOTION_DDOT":0},{"OBJECT_NAME":"ONEWEB-0443","OBJECT_ID":"2022-012R","EPOCH":"2026-01-27T06:52:33.427200","MEAN_MOTION":13.17649693,"ECCENTRICITY":0.00019401,"INCLINATION":87.9078,"RA_OF_ASC_NODE":33.8809,"ARG_OF_PERICENTER":80.9136,"MEAN_ANOMALY":279.2215,"EPHEMERIS_TYPE":0,"CLASSIFICATION_TYPE":"U","NORAD_CAT_ID":51637,"ELEMENT_SET_NO":999,"REV_AT_EPOCH":19516,"BSTAR":-0.00010010893,"MEAN_MOTION_DOT":-2.6e-7,"MEAN_MOTION_DDOT":0},{"OBJECT_NAME":"ONEWEB-0444","OBJECT_ID":"2022-012S","EPOCH":"2026-01-27T03:21:39.812832","MEAN_MOTION":13.10377448,"ECCENTRICITY":0.00018295,"INCLINATION":87.8765,"RA_OF_ASC_NODE":64.383,"ARG_OF_PERICENTER":95.2229,"MEAN_ANOMALY":264.9107,"EPHEMERIS_TYPE":0,"CLASSIFICATION_TYPE":"U","NORAD_CAT_ID":51638,"ELEMENT_SET_NO":999,"REV_AT_EPOCH":19086,"BSTAR":-0.00059228449,"MEAN_MOTION_DOT":-1.94e-6,"MEAN_MOTION_DDOT":0},{"OBJECT_NAME":"ONEWEB-0445","OBJECT_ID":"2022-012T","EPOCH":"2026-01-27T03:52:46.394976","MEAN_MOTION":13.10376483,"ECCENTRICITY":0.00018227,"INCLINATION":87.8769,"RA_OF_ASC_NODE":64.3526,"ARG_OF_PERICENTER":102.2872,"MEAN_ANOMALY":257.8459,"EPHEMERIS_TYPE":0,"CLASSIFICATION_TYPE":"U","NORAD_CAT_ID":51639,"ELEMENT_SET_NO":999,"REV_AT_EPOCH":19087,"BSTAR":0.0019077193,"MEAN_MOTION_DOT":6.79e-6,"MEAN_MOTION_DDOT":0},{"OBJECT_NAME":"ONEWEB-0446","OBJECT_ID":"2022-012U","EPOCH":"2026-01-27T03:19:16.228128","MEAN_MOTION":13.1037655,"ECCENTRICITY":0.00019125,"INCLINATION":87.8765,"RA_OF_ASC_NODE":64.3997,"ARG_OF_PERICENTER":100.3197,"MEAN_ANOMALY":259.8146,"EPHEMERIS_TYPE":0,"CLASSIFICATION_TYPE":"U","NORAD_CAT_ID":51640,"ELEMENT_SET_NO":999,"REV_AT_EPOCH":19085,"BSTAR":-0.00099604487,"MEAN_MOTION_DOT":-3.35e-6,"MEAN_MOTION_DDOT":0},{"OBJECT_NAME":"ONEWEB-0448","OBJECT_ID":"2022-012V","EPOCH":"2026-01-27T03:26:27.021120","MEAN_MOTION":13.10376644,"ECCENTRICITY":0.00017532,"INCLINATION":87.8754,"RA_OF_ASC_NODE":64.3961,"ARG_OF_PERICENTER":92.5587,"MEAN_ANOMALY":267.5741,"EPHEMERIS_TYPE":0,"CLASSIFICATION_TYPE":"U","NORAD_CAT_ID":51641,"ELEMENT_SET_NO":999,"REV_AT_EPOCH":19082,"BSTAR":-5.2465656e-5,"MEAN_MOTION_DOT":-6.0e-8,"MEAN_MOTION_DDOT":0},{"OBJECT_NAME":"ONEWEB-0449","OBJECT_ID":"2022-012W","EPOCH":"2026-01-27T03:33:38.107008","MEAN_MOTION":13.10376969,"ECCENTRICITY":0.00022294,"INCLINATION":87.8771,"RA_OF_ASC_NODE":64.3719,"ARG_OF_PERICENTER":85.7402,"MEAN_ANOMALY":274.398,"EPHEMERIS_TYPE":0,"CLASSIFICATION_TYPE":"U","NORAD_CAT_ID":51642,"ELEMENT_SET_NO":999,"REV_AT_EPOCH":19083,"BSTAR":0.00075624291,"MEAN_MOTION_DOT":2.77e-6,"MEAN_MOTION_DDOT":0},{"OBJECT_NAME":"ONEWEB-0451","OBJECT_ID":"2022-012X","EPOCH":"2026-01-26T23:13:17.692032","MEAN_MOTION":13.17650885,"ECCENTRICITY":0.00019182,"INCLINATION":87.9092,"RA_OF_ASC_NODE":33.8931,"ARG_OF_PERICENTER":88.2875,"MEAN_ANOMALY":271.8476,"EPHEMERIS_TYPE":0,"CLASSIFICATION_TYPE":"U","NORAD_CAT_ID":51643,"ELEMENT_SET_NO":999,"REV_AT_EPOCH":19506,"BSTAR":7.730094e-5,"MEAN_MOTION_DOT":4.3e-7,"MEAN_MOTION_DDOT":0},{"OBJECT_NAME":"ONEWEB-0452","OBJECT_ID":"2022-012Y","EPOCH":"2026-01-27T06:28:16.520160","MEAN_MOTION":13.17649199,"ECCENTRICITY":0.00019061,"INCLINATION":87.9083,"RA_OF_ASC_NODE":33.8836,"ARG_OF_PERICENTER":80.5648,"MEAN_ANOMALY":279.5699,"EPHEMERIS_TYPE":0,"CLASSIFICATION_TYPE":"U","NORAD_CAT_ID":51644,"ELEMENT_SET_NO":999,"REV_AT_EPOCH":19511,"BSTAR":-0.00012892584,"MEAN_MOTION_DOT":-3.7e-7,"MEAN_MOTION_DDOT":0},{"OBJECT_NAME":"ONEWEB-0456","OBJECT_ID":"2022-012AA","EPOCH":"2026-01-27T03:47:58.653600","MEAN_MOTION":13.10375553,"ECCENTRICITY":0.00016462,"INCLINATION":87.8776,"RA_OF_ASC_NODE":64.3434,"ARG_OF_PERICENTER":96.0095,"MEAN_ANOMALY":264.122,"EPHEMERIS_TYPE":0,"CLASSIFICATION_TYPE":"U","NORAD_CAT_ID":51646,"ELEMENT_SET_NO":999,"REV_AT_EPOCH":19087,"BSTAR":0.00181721,"MEAN_MOTION_DOT":6.47e-6,"MEAN_MOTION_DDOT":0},{"OBJECT_NAME":"ONEWEB-0457","OBJECT_ID":"2022-012AB","EPOCH":"2026-01-27T03:14:29.746464","MEAN_MOTION":13.10374961,"ECCENTRICITY":0.00022572,"INCLINATION":87.8762,"RA_OF_ASC_NODE":64.3875,"ARG_OF_PERICENTER":101.7046,"MEAN_ANOMALY":258.4335,"EPHEMERIS_TYPE":0,"CLASSIFICATION_TYPE":"U","NORAD_CAT_ID":51647,"ELEMENT_SET_NO":999,"REV_AT_EPOCH":19087,"BSTAR":-0.0012369554,"MEAN_MOTION_DOT":-4.19e-6,"MEAN_MOTION_DDOT":0},{"OBJECT_NAME":"ONEWEB-0458","OBJECT_ID":"2022-012AC","EPOCH":"2026-01-27T01:55:38.539488","MEAN_MOTION":13.10375515,"ECCENTRICITY":0.0001864,"INCLINATION":87.8766,"RA_OF_ASC_NODE":64.3757,"ARG_OF_PERICENTER":89.5923,"MEAN_ANOMALY":270.5418,"EPHEMERIS_TYPE":0,"CLASSIFICATION_TYPE":"U","NORAD_CAT_ID":51648,"ELEMENT_SET_NO":999,"REV_AT_EPOCH":19082,"BSTAR":0.0016924206,"MEAN_MOTION_DOT":6.04e-6,"MEAN_MOTION_DDOT":0}]
